[{"OBJECT_NAME":"STARLINK-5620","OBJECT_ID":"2023-014Z","EPOCH":"2026-03-09T22:50:04.007328","MEAN_MOTION":14.9832514,"ECCENTRICITY":0.00042346,"INCLINATION":69.9981,"RA_OF_ASC_NODE":83.7072,"ARG_OF_PERICENTER":270.6473,"MEAN_ANOMALY":89.4201,"EPHEMERIS_TYPE":0,"CLASSIFICATION_TYPE":"U","NORAD_CAT_ID":55414,"ELEMENT_SET_NO":999,"REV_AT_EPOCH":17160,"BSTAR":2.1797609e-5,"MEAN_MOTION_DOT":1.67e-6,"MEAN_MOTION_DDOT":0},{"OBJECT_NAME":"SS 2","OBJECT_ID":"1977-112E","EPOCH":"2026-03-09T21:50:48.413184","MEAN_MOTION":13.91112922,"ECCENTRICITY":0.05221989,"INCLINATION":63.3355,"RA_OF_ASC_NODE":261.535,"ARG_OF_PERICENTER":160.9398,"MEAN_ANOMALY":201.2029,"EPHEMERIS_TYPE":0,"CLASSIFICATION_TYPE":"U","NORAD_CAT_ID":10544,"ELEMENT_SET_NO":999,"REV_AT_EPOCH":33858,"BSTAR":0.00039726462,"MEAN_MOTION_DOT":1.41e-5,"MEAN_MOTION_DDOT":0}]
